NORAD_CAT_ID,OBJECT_NAME,OBJECT_TYPE,EPOCH,MEAN_MOTION,ECCENTRICITY,INCLINATION,RA_OF_ASC_NODE,ARG_OF_PERICENTER,MEAN_ANOMALY,BSTAR,MEAN_MOTION_DOT,MEAN_MOTION_DDOT,TLE_LINE0,TLE_LINE1,TLE_LINE2,SEMIMAJOR_AXIS,PERIOD,APOGEE,PERIGEE,DECAYED
52582.0,STARLINK-3886,PAYLOAD,2022-09-19 12:12:57,15.0882165,0.0001959,53.2187,47.7034,41.4069,318.7071,-1.6907e-05,-5.57e-06,0.0,0 STARLINK-3886,1 52582U 22051AY  22262.50900213 -.00000557  00000-0 -16907-4 0  9992,2 52582  53.2187  47.7034 0001959  41.4069 318.7071 15.08821650 20288,6917.936,95.439,541.1569999999998,538.446,0.0
52582.0,STARLINK-3886,PAYLOAD,2022-09-19 16:59:06,15.08825696,0.0001804,53.2188,46.8112,44.2358,315.8778,2.0732e-05,4.2e-07,0.0,0 STARLINK-3886,1 52582U 22051AY  22262.70771981  .00000042  00000-0  20732-4 0  9990,2 52582  53.2188  46.8112 0001804  44.2358 315.8778 15.08825696 20317,6917.924,95.438,541.0369999999998,538.5409999999998,0.0
52582.0,STARLINK-3886,PAYLOAD,2022-09-20 02:31:25,15.08833837,0.0001836,53.2187,45.0268,44.2747,315.8392,4.3857e-05,4.1e-06,0.0,0 STARLINK-3886,1 52582U 22051AY  22263.10515610  .00000410  00000-0  43857-4 0  9992,2 52582  53.2187  45.0268 0001836  44.2747 315.8392 15.08833837 20448,6917.899,95.438,541.034,538.494,0.0
52582.0,STARLINK-3886,PAYLOAD,2022-09-21 03:57:35,15.08811667,0.0002195999999999,53.2189,40.2694,55.5168,304.6032,0.00045804,7.004e-05,0.0,0 STARLINK-3886,1 52582U 22051AY  22264.16499881  .00007004  00000-0  45804-3 0  9999,2 52582  53.2189  40.2694 0002196  55.5168 304.6032 15.08811667 20604,6917.967,95.439,541.351,538.313,0.0
52582.0,STARLINK-3886,PAYLOAD,2022-09-21 11:54:31,15.08835946,0.0001776999999999,53.2188,38.7824,45.6302,314.4836,8.1643e-05,1.011e-05,0.0,0 STARLINK-3886,1 52582U 22051AY  22264.49619278  .00001011  00000-0  81643-4 0  9993,2 52582  53.2188  38.7824 0001777  45.6302 314.4836 15.08835946 20656,6917.893,95.438,540.987,538.528,0.0
52582.0,STARLINK-3886,PAYLOAD,2022-09-21 15:05:17,15.08836261,0.000178,53.2188,38.1877,45.9278,314.186,8.026100000000001e-05,9.89e-06,0.0,0 STARLINK-3886,1 52582U 22051AY  22264.62867288  .00000989  00000-0  80261-4 0  9992,2 52582  53.2188  38.1877 0001780  45.9278 314.1860 15.08836261 20607,6917.892,95.438,540.988,538.525,0.0
52582.0,STARLINK-3886,PAYLOAD,2022-09-22 13:20:41,15.08842064,0.0001541999999999,53.2194,34.0246,38.5224,321.5878,-4.656e-06,-3.62e-06,0.0,0 STARLINK-3886,1 52582U 22051AY  22265.55603053 -.00000362  00000-0 -46560-5 0  9995,2 52582  53.2194  34.0246 0001542  38.5224 321.5878 15.08842064 20748,6917.874,95.437,540.806,538.672,0.0
52582.0,STARLINK-3886,PAYLOAD,2022-09-22 14:56:04,15.08841852,0.0001561999999999,53.2194,33.7274,38.9298,321.1806,-7.4738e-06,-4.07e-06,0.0,0 STARLINK-3886,1 52582U 22051AY  22265.62227068 -.00000407  00000-0 -74738-5 0  9999,2 52582  53.2194  33.7274 0001562  38.9298 321.1806 15.08841852 20754,6917.875,95.437,540.82,538.659,0.0
52582.0,STARLINK-3886,PAYLOAD,2022-09-23 13:11:27,15.08841682,0.0001665,53.2194,29.5646,41.0581,319.0536,-2.0534e-05,-6.15e-06,0.0,0 STARLINK-3886,1 52582U 22051AY  22266.54962954 -.00000615  00000-0 -20534-4 0  9996,2 52582  53.2194  29.5646 0001665  41.0581 319.0536 15.08841682 20896,6917.875,95.437,540.8919999999998,538.5880000000002,0.0
52582.0,STARLINK-3886,PAYLOAD,2022-09-23 14:46:51,15.08842404,0.000167,53.2193,29.2671,42.3335,317.7786,-1.246e-05,-4.86e-06,0.0,0 STARLINK-3886,1 52582U 22051AY  22266.61586869 -.00000486  00000-0 -12460-4 0  9996,2 52582  53.2193  29.2671 0001670  42.3335 317.7786 15.08842404 20904,6917.873000000001,95.437,540.893,538.5830000000002,0.0
52582.0,STARLINK-3886,PAYLOAD,2022-09-24 13:02:14,15.08840544,0.0001704,53.2194,25.1038,39.8012,320.3105,6.807e-06,-1.8e-06,0.0,0 STARLINK-3886,1 52582U 22051AY  22267.54322752 -.00000180  00000-0  68070-5 0  9997,2 52582  53.2194  25.1038 0001704  39.8012 320.3105 15.08840544 21042,6917.879,95.438,540.923,538.565,0.0
52582.0,STARLINK-3886,PAYLOAD,2022-09-24 14:37:38,15.08831767,0.000166,53.2194,24.8071,45.8419,314.271,-8.9392e-05,-1.7100000000000002e-05,0.0,0 STARLINK-3886,1 52582U 22051AY  22267.60947599 -.00001710  00000-0 -89392-4 0  9996,2 52582  53.2194  24.8071 0001660  45.8419 314.2710 15.08831767 21124,6917.906,95.438,540.919,538.622,0.0
52582.0,STARLINK-3886,PAYLOAD,2022-09-25 11:17:38,15.08840489,0.0001653,53.2195,20.9411,50.9399,309.1740000000001,4.1841e-05,3.78e-06,0.0,0 STARLINK-3886,1 52582U 22051AY  22268.47058744  .00000378  00000-0  41841-4 0  9991,2 52582  53.2195  20.9411 0001653  50.9399 309.1740 15.08840489 21257,6917.879,95.438,540.887,538.6,0.0
52582.0,STARLINK-3886,PAYLOAD,2022-09-25 14:28:24,15.08843688,0.0001945,53.2195,20.3473,37.4068,322.706,6.630899999999999e-05,7.67e-06,0.0,0 STARLINK-3886,1 52582U 22051AY  22268.60306523  .00000767  00000-0  66309-4 0  9995,2 52582  53.2195  20.3473 0001945  37.4068 322.7060 15.08843688 21201,6917.869000000002,95.437,541.08,538.389,0.0
52582.0,STARLINK-3886,PAYLOAD,2022-09-26 09:33:03,15.08824508,0.0001745,53.2199,16.7785,38.1962,321.9154,1.6063e-05,-3.2e-07,0.0,0 STARLINK-3886,1 52582U 22051AY  22269.39795718 -.00000032  00000-0  16063-4 0  9998,2 52582  53.2199  16.7785 0001745  38.1962 321.9154 15.08824508 21394,6917.928000000001,95.439,541.0,538.586,0.0
52582.0,STARLINK-3886,PAYLOAD,2022-09-27 12:34:36,15.08840118,0.0001923,53.2197,11.7239,42.5414,317.5726,-4.4243e-06,-3.59e-06,0.0,0 STARLINK-3886,1 52582U 22051AY  22270.52403404 -.00000359  00000-0 -44243-5 0  9998,2 52582  53.2197  11.7239 0001923  42.5414 317.5726 15.08840118 21560,6917.88,95.438,541.075,538.415,0.0
52582.0,STARLINK-3886,PAYLOAD,2022-09-27 14:09:59,15.08839955,0.0001933,53.2197,11.4266,42.328,317.7861,-7.2703e-06,-4.04e-06,0.0,0 STARLINK-3886,1 52582U 22051AY  22270.59027421 -.00000404  00000-0 -72703-5 0  9999,2 52582  53.2197  11.4266 0001933  42.3280 317.7861 15.08839955 21500,6917.880999999999,95.438,541.0830000000002,538.408,0.0
52582.0,STARLINK-3886,PAYLOAD,2022-09-27 23:42:17,15.088461,0.0001933,53.2181,9.6422,41.9486,318.1654,4.7827e-05,4.73e-06,0.0,0 STARLINK-3886,1 52582U 22051AY  22270.98770721  .00000473  00000-0  47827-4 0  9992,2 52582  53.2181   9.6422 0001933  41.9486 318.1654 15.08846100 21638,6917.861999999999,95.437,541.064,538.39,0.0
52582.0,STARLINK-3886,PAYLOAD,2022-09-28 12:25:23,15.08837557,0.0002005999999999,53.2197,7.2632,44.7635,315.3519,0.00010764,1.425e-05,0.0,0 STARLINK-3886,1 52582U 22051AY  22271.51763038  .00001425  00000-0  10764-3 0  9992,2 52582  53.2197   7.2632 0002006  44.7635 315.3519 15.08837557 21647,6917.888000000001,95.438,541.141,538.365,0.0
52582.0,STARLINK-3886,PAYLOAD,2022-09-29 12:16:11,15.08831764,0.0002088,53.22,2.8031,43.4865,316.6291,-6.8551e-05,-1.379e-05,0.0,0 STARLINK-3886,1 52582U 22051AY  22272.51124453 -.00001379  00000-0 -68551-4 0  9993,2 52582  53.2200   2.8031 0002088  43.4865 316.6291 15.08831764 21798,6917.906,95.438,541.215,538.326,0.0
52582.0,STARLINK-3886,PAYLOAD,2022-09-30 12:06:57,15.08847095,0.0002079,53.2198,358.3431,46.2897,313.8267,6.1264e-05,6.87e-06,0.0,0 STARLINK-3886,1 52582U 22051AY  22273.50483177  .00000687  00000-0  61264-4 0  9997,2 52582  53.2198 358.3431 0002079  46.2897 313.8267 15.08847095 21946,6917.859,95.437,541.1619999999998,538.285,0.0
52582.0,STARLINK-3886,PAYLOAD,2022-09-30 15:17:43,15.08849563,0.000217,53.2194,357.7488,46.5422,313.575,0.00010724,1.419e-05,0.0,0 STARLINK-3886,1 52582U 22051AY  22273.63730826  .00001419  00000-0  10724-3 0  9995,2 52582  53.2194 357.7488 0002170  46.5422 313.5750 15.08849563 22033,6917.851,95.437,541.217,538.215,0.0
52582.0,STARLINK-3886,PAYLOAD,2022-10-01 11:57:44,15.08831663,0.0002110999999999,53.2196,353.8839,40.891,319.2241,4.144e-05,3.71e-06,0.0,0 STARLINK-3886,1 52582U 22051AY  22274.49843709  .00000371  00000-0  41440-4 0  9991,2 52582  53.2196 353.8839 0002111  40.8910 319.2241 15.08831663 22092,6917.906,95.438,541.231,538.311,0.0
52582.0,STARLINK-3886,PAYLOAD,2022-10-02 11:48:31,15.088448199999998,0.0002139,53.2203,349.4238,44.5729,315.5435,-6.4978e-05,-1.322e-05,0.0,0 STARLINK-3886,1 52582U 22051AY  22275.49203293 -.00001322  00000-0 -64978-4 0  9990,2 52582  53.2203 349.4238 0002139  44.5729 315.5435 15.08844820 22244,6917.866,95.437,541.21,538.251,0.0
52582.0,STARLINK-3886,PAYLOAD,2022-10-03 13:14:41,15.08838906,0.0002184,53.2202,344.6683,34.9941,325.1195,-2.1746e-05,-6.34e-06,0.0,0 STARLINK-3886,1 52582U 22051AY  22276.55186989 -.00000634  00000-0 -21746-4 0  9991,2 52582  53.2202 344.6683 0002184  34.9941 325.1195 15.08838906 22409,6917.884,95.438,541.26,538.238,0.0
52582.0,STARLINK-3886,PAYLOAD,2022-10-03 14:50:04,15.08840997,0.0002032999999999,53.2188,344.3683,34.3974,325.715,3.4896e-05,2.67e-06,0.0,0 STARLINK-3886,1 52582U 22051AY  22276.61810609  .00000267  00000-0  34896-4 0  9991,2 52582  53.2188 344.3683 0002033  34.3974 325.7150 15.08840997 22480,6917.877,95.437,541.149,538.336,0.0
52582.0,STARLINK-3886,PAYLOAD,2022-10-03 21:11:36,15.08848116,0.0001961,53.2195,343.1791,40.3178,319.796,0.00010337,1.358e-05,0.0,0 STARLINK-3886,1 52582U 22051AY  22276.88305807  .00001358  00000-0  10337-3 0  9994,2 52582  53.2195 343.1791 0001961  40.3178 319.7960 15.08848116 22525,6917.856,95.437,541.077,538.364,0.0
52582.0,STARLINK-3886,PAYLOAD,2022-10-04 11:30:06,15.08812694,0.0001501,53.219,340.5016,55.6262,304.4872,-0.00021799,-3.753e-05,0.0,0 STARLINK-3886,1 52582U 22051AY  22277.47924741 -.00003753  00000-0 -21799-3 0  9991,2 52582  53.2190 340.5016 0001501  55.6262 304.4872 15.08812694 22619,6917.964,95.439,540.867,538.79,0.0
52582.0,STARLINK-3886,PAYLOAD,2022-10-04 21:02:23,15.088410199999998,0.0002311999999999,53.2188,338.7171,36.3098,323.8051,-2.5736e-05,-6.98e-06,0.0,0 STARLINK-3886,1 52582U 22051AY  22277.87666609 -.00000698  00000-0 -25736-4 0  9992,2 52582  53.2188 338.7171 0002312  36.3098 323.8051 15.08841020 22609,6917.877,95.437,541.342,538.143,0.0
